[{"OBJECT_NAME":"STARLINK-4122","OBJECT_ID":"2022-086AG","EPOCH":"2026-03-09T13:57:42.886368","MEAN_MOTION":15.08841375,"ECCENTRICITY":0.0001223,"INCLINATION":53.2172,"RA_OF_ASC_NODE":184.608,"ARG_OF_PERICENTER":76.6101,"MEAN_ANOMALY":283.5027,"EPHEMERIS_TYPE":0,"CLASSIFICATION_TYPE":"U","NORAD_CAT_ID":53272,"ELEMENT_SET_NO":999,"REV_AT_EPOCH":20118,"BSTAR":-1.2757e-5,"MEAN_MOTION_DOT":-4.91e-6,"MEAN_MOTION_DDOT":0},{"OBJECT_NAME":"PSLV R\/B","OBJECT_ID":"2010-035F","EPOCH":"2026-03-09T21:32:02.806944","MEAN_MOTION":15.11637156,"ECCENTRICITY":0.00120112,"INCLINATION":97.9796,"RA_OF_ASC_NODE":355.2302,"ARG_OF_PERICENTER":197.9598,"MEAN_ANOMALY":162.1208,"EPHEMERIS_TYPE":0,"CLASSIFICATION_TYPE":"U","NORAD_CAT_ID":36800,"ELEMENT_SET_NO":999,"REV_AT_EPOCH":85407,"BSTAR":0.00037264097,"MEAN_MOTION_DOT":6.275e-5,"MEAN_MOTION_DDOT":0}]
